[{"OBJECT_NAME":"TRANSPORTER-10 OBJECT AG","OBJECT_ID":"2024-043AG","EPOCH":"2026-03-09T22:12:45.387648","MEAN_MOTION":15.30759727,"ECCENTRICITY":0.00093005,"INCLINATION":97.5471,"RA_OF_ASC_NODE":205.7101,"ARG_OF_PERICENTER":226.5958,"MEAN_ANOMALY":133.4509,"EPHEMERIS_TYPE":0,"CLASSIFICATION_TYPE":"U","NORAD_CAT_ID":59128,"ELEMENT_SET_NO":999,"REV_AT_EPOCH":11192,"BSTAR":0.00032170115,"MEAN_MOTION_DOT":9.498e-5,"MEAN_MOTION_DDOT":0},{"OBJECT_NAME":"STARLINK-31888","OBJECT_ID":"2024-093G","EPOCH":"2026-03-09T11:06:43.350336","MEAN_MOTION":15.27559291,"ECCENTRICITY":0.00012047,"INCLINATION":43.0024,"RA_OF_ASC_NODE":209.929,"ARG_OF_PERICENTER":265.3673,"MEAN_ANOMALY":94.7041,"EPHEMERIS_TYPE":0,"CLASSIFICATION_TYPE":"U","NORAD_CAT_ID":59788,"ELEMENT_SET_NO":999,"REV_AT_EPOCH":10266,"BSTAR":-0.00011368532,"MEAN_MOTION_DOT":-3.387e-5,"MEAN_MOTION_DDOT":0}]
